[{"OBJECT_NAME":"PERSEUS-M1","OBJECT_ID":"2014-033AF","EPOCH":"2026-03-28T19:29:58.753248","MEAN_MOTION":14.95341174,"ECCENTRICITY":0.0010928,"INCLINATION":97.9575,"RA_OF_ASC_NODE":30.6756,"ARG_OF_PERICENTER":197.5413,"MEAN_ANOMALY":162.5431,"EPHEMERIS_TYPE":0,"CLASSIFICATION_TYPE":"U","NORAD_CAT_ID":40039,"ELEMENT_SET_NO":999,"REV_AT_EPOCH":63862,"BSTAR":0.00015525,"MEAN_MOTION_DOT":1.653e-5,"MEAN_MOTION_DDOT":0},{"OBJECT_NAME":"POLYITAN-1","OBJECT_ID":"2014-033AJ","EPOCH":"2026-03-28T18:31:23.422368","MEAN_MOTION":15.30371133,"ECCENTRICITY":0.0009361,"INCLINATION":98.1032,"RA_OF_ASC_NODE":106.5786,"ARG_OF_PERICENTER":75.6379,"MEAN_ANOMALY":284.5898,"EPHEMERIS_TYPE":0,"CLASSIFICATION_TYPE":"U","NORAD_CAT_ID":40042,"ELEMENT_SET_NO":999,"REV_AT_EPOCH":64128,"BSTAR":0.00082539,"MEAN_MOTION_DOT":0.00024242,"MEAN_MOTION_DDOT":0},{"OBJECT_NAME":"TIGRISAT","OBJECT_ID":"2014-033AK","EPOCH":"2026-03-28T09:24:41.929344","MEAN_MOTION":14.84814543,"ECCENTRICITY":0.00489292,"INCLINATION":97.7705,"RA_OF_ASC_NODE":239.3229,"ARG_OF_PERICENTER":341.1865,"MEAN_ANOMALY":18.754,"EPHEMERIS_TYPE":0,"CLASSIFICATION_TYPE":"U","NORAD_CAT_ID":40043,"ELEMENT_SET_NO":999,"REV_AT_EPOCH":63363,"BSTAR":0.00025716055,"MEAN_MOTION_DOT":2.175e-5,"MEAN_MOTION_DDOT":0},{"OBJECT_NAME":"AISAT","OBJECT_ID":"2014-034B","EPOCH":"2026-03-28T17:51:15.697152","MEAN_MOTION":15.0716272,"ECCENTRICITY":0.0010567,"INCLINATION":98.2441,"RA_OF_ASC_NODE":354.378,"ARG_OF_PERICENTER":126.2921,"MEAN_ANOMALY":233.9282,"EPHEMERIS_TYPE":0,"CLASSIFICATION_TYPE":"U","NORAD_CAT_ID":40054,"ELEMENT_SET_NO":999,"REV_AT_EPOCH":63508,"BSTAR":0.0009116,"MEAN_MOTION_DOT":0.00013674,"MEAN_MOTION_DDOT":0},{"OBJECT_NAME":"CANX-4","OBJECT_ID":"2014-034C","EPOCH":"2026-03-28T21:32:37.904352","MEAN_MOTION":14.81108478,"ECCENTRICITY":0.0011513,"INCLINATION":98.3244,"RA_OF_ASC_NODE":320.2191,"ARG_OF_PERICENTER":269.6828,"MEAN_ANOMALY":90.3064,"EPHEMERIS_TYPE":0,"CLASSIFICATION_TYPE":"U","NORAD_CAT_ID":40055,"ELEMENT_SET_NO":999,"REV_AT_EPOCH":63264,"BSTAR":0.00015523,"MEAN_MOTION_DOT":1.149e-5,"MEAN_MOTION_DDOT":0},{"OBJECT_NAME":"CANX-5","OBJECT_ID":"2014-034D","EPOCH":"2026-03-28T21:31:42.217824","MEAN_MOTION":14.81125329,"ECCENTRICITY":0.001152,"INCLINATION":98.3246,"RA_OF_ASC_NODE":320.2573,"ARG_OF_PERICENTER":269.9394,"MEAN_ANOMALY":90.0498,"EPHEMERIS_TYPE":0,"CLASSIFICATION_TYPE":"U","NORAD_CAT_ID":40056,"ELEMENT_SET_NO":999,"REV_AT_EPOCH":62345,"BSTAR":0.00015573,"MEAN_MOTION_DOT":1.153e-5,"MEAN_MOTION_DDOT":0},{"OBJECT_NAME":"VELOX-I","OBJECT_ID":"2014-034E","EPOCH":"2026-03-28T19:24:56.176128","MEAN_MOTION":14.97098482,"ECCENTRICITY":0.000768,"INCLINATION":98.2613,"RA_OF_ASC_NODE":348.2764,"ARG_OF_PERICENTER":162.3801,"MEAN_ANOMALY":197.7687,"EPHEMERIS_TYPE":0,"CLASSIFICATION_TYPE":"U","NORAD_CAT_ID":40057,"ELEMENT_SET_NO":999,"REV_AT_EPOCH":63457,"BSTAR":0.00072789,"MEAN_MOTION_DOT":8.343e-5,"MEAN_MOTION_DDOT":0},{"OBJECT_NAME":"GONETS-M 10","OBJECT_ID":"2014-036C","EPOCH":"2026-03-28T19:38:37.898880","MEAN_MOTION":12.42943112,"ECCENTRICITY":0.0021539,"INCLINATION":82.5167,"RA_OF_ASC_NODE":357.5951,"ARG_OF_PERICENTER":320.3616,"MEAN_ANOMALY":39.5889,"EPHEMERIS_TYPE":0,"CLASSIFICATION_TYPE":"U","NORAD_CAT_ID":40063,"ELEMENT_SET_NO":999,"REV_AT_EPOCH":53226,"BSTAR":0.00011179,"MEAN_MOTION_DOT":2.5e-7,"MEAN_MOTION_DDOT":0},{"OBJECT_NAME":"METEOR-M 2","OBJECT_ID":"2014-037A","EPOCH":"2026-03-28T21:36:20.899296","MEAN_MOTION":14.21436668,"ECCENTRICITY":0.0004552,"INCLINATION":98.5055,"RA_OF_ASC_NODE":66.511,"ARG_OF_PERICENTER":272.0285,"MEAN_ANOMALY":88.0372,"EPHEMERIS_TYPE":0,"CLASSIFICATION_TYPE":"U","NORAD_CAT_ID":40069,"ELEMENT_SET_NO":999,"REV_AT_EPOCH":60791,"BSTAR":7.3188e-5,"MEAN_MOTION_DOT":1.18e-6,"MEAN_MOTION_DDOT":0},{"OBJECT_NAME":"DX1","OBJECT_ID":"2014-037C","EPOCH":"2026-03-28T20:02:25.201824","MEAN_MOTION":14.89711052,"ECCENTRICITY":0.0007336,"INCLINATION":98.3785,"RA_OF_ASC_NODE":44.7166,"ARG_OF_PERICENTER":162.1869,"MEAN_ANOMALY":197.9605,"EPHEMERIS_TYPE":0,"CLASSIFICATION_TYPE":"U","NORAD_CAT_ID":40071,"ELEMENT_SET_NO":999,"REV_AT_EPOCH":63414,"BSTAR":0.00039739,"MEAN_MOTION_DOT":3.745e-5,"MEAN_MOTION_DDOT":0},{"OBJECT_NAME":"UKUBE-1","OBJECT_ID":"2014-037F","EPOCH":"2026-03-28T17:49:55.790976","MEAN_MOTION":15.12187728,"ECCENTRICITY":0.0003177,"INCLINATION":98.4236,"RA_OF_ASC_NODE":82.6519,"ARG_OF_PERICENTER":82.7507,"MEAN_ANOMALY":277.4082,"EPHEMERIS_TYPE":0,"CLASSIFICATION_TYPE":"U","NORAD_CAT_ID":40074,"ELEMENT_SET_NO":999,"REV_AT_EPOCH":63639,"BSTAR":0.00068944,"MEAN_MOTION_DOT":0.00011835,"MEAN_MOTION_DDOT":0},{"OBJECT_NAME":"GAOFEN-2","OBJECT_ID":"2014-049A","EPOCH":"2026-03-28T20:03:49.585248","MEAN_MOTION":14.80797886,"ECCENTRICITY":0.0008386,"INCLINATION":98.0188,"RA_OF_ASC_NODE":152.0977,"ARG_OF_PERICENTER":126.9158,"MEAN_ANOMALY":233.2824,"EPHEMERIS_TYPE":0,"CLASSIFICATION_TYPE":"U","NORAD_CAT_ID":40118,"ELEMENT_SET_NO":999,"REV_AT_EPOCH":62734,"BSTAR":2.466e-5,"MEAN_MOTION_DOT":1.37e-6,"MEAN_MOTION_DDOT":0},{"OBJECT_NAME":"BRITE-PL2 (HEWELIUSZ)","OBJECT_ID":"2014-049B","EPOCH":"2026-03-28T19:48:15.115680","MEAN_MOTION":14.94275734,"ECCENTRICITY":0.001435,"INCLINATION":97.8993,"RA_OF_ASC_NODE":199.2686,"ARG_OF_PERICENTER":21.2487,"MEAN_ANOMALY":338.9326,"EPHEMERIS_TYPE":0,"CLASSIFICATION_TYPE":"U","NORAD_CAT_ID":40119,"ELEMENT_SET_NO":999,"REV_AT_EPOCH":62944,"BSTAR":0.0002152,"MEAN_MOTION_DOT":2.255e-5,"MEAN_MOTION_DDOT":0},{"OBJECT_NAME":"CBERS 4","OBJECT_ID":"2014-079A","EPOCH":"2026-03-28T21:08:31.426656","MEAN_MOTION":14.35571078,"ECCENTRICITY":2.47e-5,"INCLINATION":98.3444,"RA_OF_ASC_NODE":147.2757,"ARG_OF_PERICENTER":64.854,"MEAN_ANOMALY":295.2672,"EPHEMERIS_TYPE":0,"CLASSIFICATION_TYPE":"U","NORAD_CAT_ID":40336,"ELEMENT_SET_NO":999,"REV_AT_EPOCH":59243,"BSTAR":-1.6049e-5,"MEAN_MOTION_DOT":-8.8e-7,"MEAN_MOTION_DDOT":0},{"OBJECT_NAME":"SMAP","OBJECT_ID":"2015-003A","EPOCH":"2026-03-28T19:21:41.682816","MEAN_MOTION":14.63362308,"ECCENTRICITY":0.000185,"INCLINATION":98.1308,"RA_OF_ASC_NODE":96.0289,"ARG_OF_PERICENTER":100.3574,"MEAN_ANOMALY":259.7837,"EPHEMERIS_TYPE":0,"CLASSIFICATION_TYPE":"U","NORAD_CAT_ID":40376,"ELEMENT_SET_NO":999,"REV_AT_EPOCH":59586,"BSTAR":0.00012119,"MEAN_MOTION_DOT":5.79e-6,"MEAN_MOTION_DDOT":0},{"OBJECT_NAME":"GONETS-M 11","OBJECT_ID":"2015-020A","EPOCH":"2026-03-28T21:54:47.686752","MEAN_MOTION":12.42873881,"ECCENTRICITY":0.0016035,"INCLINATION":82.4811,"RA_OF_ASC_NODE":81.0097,"ARG_OF_PERICENTER":172.9849,"MEAN_ANOMALY":187.1458,"EPHEMERIS_TYPE":0,"CLASSIFICATION_TYPE":"U","NORAD_CAT_ID":40552,"ELEMENT_SET_NO":999,"REV_AT_EPOCH":49876,"BSTAR":0.0010064,"MEAN_MOTION_DOT":1.49e-6,"MEAN_MOTION_DDOT":0},{"OBJECT_NAME":"GONETS-M 12","OBJECT_ID":"2015-020B","EPOCH":"2026-03-28T21:17:59.781408","MEAN_MOTION":12.42889426,"ECCENTRICITY":0.0015384,"INCLINATION":82.4844,"RA_OF_ASC_NODE":82.1288,"ARG_OF_PERICENTER":157.4787,"MEAN_ANOMALY":202.6971,"EPHEMERIS_TYPE":0,"CLASSIFICATION_TYPE":"U","NORAD_CAT_ID":40553,"ELEMENT_SET_NO":999,"REV_AT_EPOCH":49875,"BSTAR":0.0013898,"MEAN_MOTION_DOT":2.02e-6,"MEAN_MOTION_DDOT":0}]
