PERSEUS-M1              
1 40039U 14033AF  26087.81248557  .00001653  00000+0  15525-3 0  9995
2 40039  97.9575  30.6756 0010928 197.5413 162.5431 14.95341174638623
POLYITAN-1              
1 40042U 14033AJ  26087.77179887  .00024242  00000+0  82539-3 0  9991
2 40042  98.1032 106.5786 0009361  75.6379 284.5898 15.30371133641286
TIGRISAT                
1 40043U 14033AK  26087.39215196  .00002175  00000+0  25716-3 0  9999
2 40043  97.7705 239.3229 0048929 341.1865  18.7540 14.84814543633636
AISAT                   
1 40054U 14034B   26087.74393168  .00013674  00000+0  91160-3 0  9999
2 40054  98.2441 354.3780 0010567 126.2921 233.9282 15.07162720635087
CANX-4                  
1 40055U 14034C   26087.89766093  .00001149  00000+0  15523-3 0  9990
2 40055  98.3244 320.2191 0011513 269.6828  90.3064 14.81108478632641
CANX-5                  
1 40056U 14034D   26087.89701641  .00001153  00000+0  15573-3 0  9999
2 40056  98.3246 320.2573 0011520 269.9394  90.0498 14.81125329623458
VELOX-I                 
1 40057U 14034E   26087.80898352  .00008343  00000+0  72789-3 0  9997
2 40057  98.2613 348.2764 0007680 162.3801 197.7687 14.97098482634575
GONETS-M 10             
1 40063U 14036C   26087.81849420  .00000025  00000+0  11179-3 0  9994
2 40063  82.5167 357.5951 0021539 320.3616  39.5889 12.42943112532269
METEOR-M 2              
1 40069U 14037A   26087.90024189  .00000118  00000+0  73188-4 0  9990
2 40069  98.5055  66.5110 0004552 272.0285  88.0372 14.21436668607916
DX1                     
1 40071U 14037C   26087.83501391  .00003745  00000+0  39739-3 0  9992
2 40071  98.3785  44.7166 0007336 162.1869 197.9605 14.89711052634147
UKUBE-1                 
1 40074U 14037F   26087.74300684  .00011835  00000+0  68944-3 0  9996
2 40074  98.4236  82.6519 0003177  82.7507 277.4082 15.12187728636396
GAOFEN-2                
1 40118U 14049A   26087.83599057  .00000137  00000+0  24660-4 0  9993
2 40118  98.0188 152.0977 0008386 126.9158 233.2824 14.80797886627342
BRITE-PL2 (HEWELIUSZ)   
1 40119U 14049B   26087.82517495  .00002255  00000+0  21520-3 0  9993
2 40119  97.8993 199.2686 0014350  21.2487 338.9326 14.94275734629445
CBERS 4                 
1 40336U 14079A   26087.88091929 -.00000088  00000+0 -16049-4 0  9997
2 40336  98.3444 147.2757 0000247  64.8540 295.2672 14.35571078592430
SMAP                    
1 40376U 15003A   26087.80673244  .00000579  00000+0  12119-3 0  9993
2 40376  98.1308  96.0289 0001850 100.3574 259.7837 14.63362308595869
GONETS-M 11             
1 40552U 15020A   26087.91305193  .00000149  00000+0  10064-2 0  9994
2 40552  82.4811  81.0097 0016035 172.9849 187.1458 12.42873881498764
GONETS-M 12             
1 40553U 15020B   26087.88749747  .00000202  00000+0  13898-2 0  9996
2 40553  82.4844  82.1288 0015384 157.4787 202.6971 12.42889426498754
